start=new Date('2021-10-27T00:00:00.000Z').valueOf();
sats=[{"OBJECT_NAME":"STARLINK-1171","MEAN_ELEMENT_THEORY":"SGP4","SITE":"AFETR","EPOCH":"2021-10-26T05:46:26.935392","CLASSIFICATION_TYPE":"U","ECCENTRICITY":"0.00015670","TLE_LINE2":"2 45062  53.0544 248.8655 0001567  70.2486 289.8672 15.06399350 95999","MEAN_ANOMALY":"289.8672","RA_OF_ASC_NODE":"248.8655","TLE_LINE1":"1 45062U 20006U   21299.24058953  .00001599  00000-0  12619-3 0  9990","BSTAR":"0.00012619000000","SEMIMAJOR_AXIS":"6925.351","COUNTRY_CODE":"US","DECAY_DATE":null,"OBJECT_TYPE":"PAYLOAD","CENTER_NAME":"EARTH","APOAPSIS":"548.301","ELEMENT_SET_NO":"999","INCLINATION":"53.0544","FILE":"3184921","MEAN_MOTION_DDOT":"0.0000000000000","REV_AT_EPOCH":"9599","LAUNCH_DATE":"2020-01-29","TIME_SYSTEM":"UTC","RCS_SIZE":"LARGE","MEAN_MOTION_DOT":"0.00001599","MEAN_MOTION":"15.06399350","PERIOD":"95.592","REF_FRAME":"TEME","PERIAPSIS":"546.130","EPHEMERIS_TYPE":"0","OBJECT_ID":"2020-006U","ARG_OF_PERICENTER":"70.2486","NORAD_CAT_ID":"45062","GP_ID":"188197694"},{"GP_ID":"188198440","ARG_OF_PERICENTER":"201.9609","OBJECT_ID":"2020-006V","NORAD_CAT_ID":"45063","EPHEMERIS_TYPE":"0","PERIAPSIS":"278.383","PERIOD":"90.130","REF_FRAME":"TEME","MEAN_MOTION":"15.97683508","MEAN_MOTION_DOT":"0.01252228","TIME_SYSTEM":"UTC","RCS_SIZE":"LARGE","LAUNCH_DATE":"2020-01-29","FILE":"3184921","REV_AT_EPOCH":"9647","MEAN_MOTION_DDOT":"0.0007987300000","INCLINATION":"53.0531","ELEMENT_SET_NO":"999","APOAPSIS":"283.316","CENTER_NAME":"EARTH","OBJECT_TYPE":"PAYLOAD","DECAY_DATE":null,"COUNTRY_CODE":"US","SEMIMAJOR_AXIS":"6658.985","BSTAR":"0.00274940000000","TLE_LINE1":"1 45063U 20006V   21299.25185726  .01252228  79873-3  27494-2 0  9992","RA_OF_ASC_NODE":"214.4771","MEAN_ANOMALY":"158.1261","TLE_LINE2":"2 45063  53.0531 214.4771 0003704 201.9609 158.1261 15.97683508 96476","ECCENTRICITY":"0.00037040","CLASSIFICATION_TYPE":"U","EPOCH":"2021-10-26T06:02:40.467264","SITE":"AFETR","MEAN_ELEMENT_THEORY":"SGP4","OBJECT_NAME":"STARLINK-1178"},{"MEAN_MOTION":"15.06401037","MEAN_MOTION_DOT":"0.00000298","PERIOD":"95.592","REF_FRAME":"TEME","LAUNCH_DATE":"2020-01-29","RCS_SIZE":"LARGE","TIME_SYSTEM":"UTC","ARG_OF_PERICENTER":"74.1766","NORAD_CAT_ID":"45064","OBJECT_ID":"2020-006W","GP_ID":"188197192","PERIAPSIS":"546.170","EPHEMERIS_TYPE":"0","RA_OF_ASC_NODE":"228.5087","MEAN_ANOMALY":"285.9389","SITE":"AFETR","MEAN_ELEMENT_THEORY":"SGP4","CLASSIFICATION_TYPE":"U","ECCENTRICITY":"0.00015030","EPOCH":"2021-10-26T07:40:34.101696","OBJECT_NAME":"STARLINK-1133","TLE_LINE2":"2 45064  53.0538 228.5087 0001503  74.1766 285.9389 15.06401037 96283","APOAPSIS":"548.251","ELEMENT_SET_NO":"999","INCLINATION":"53.0538","FILE":"3184921","MEAN_MOTION_DDOT":"0.0000000000000","REV_AT_EPOCH":"9628","BSTAR":"0.00003890700000","SEMIMAJOR_AXIS":"6925.345","TLE_LINE1":"1 45064U 20006W   21299.31983914  .00000298  00000-0  38907-4 0  9998","OBJECT_TYPE":"PAYLOAD","CENTER_NAME":"EARTH","DECAY_DATE":null,"COUNTRY_CODE":"US"},{"LAUNCH_DATE":"2020-01-29","TIME_SYSTEM":"UTC","RCS_SIZE":"LARGE","REF_FRAME":"TEME","PERIOD":"95.592","MEAN_MOTION_DOT":"0.00000642","MEAN_MOTION":"15.06400913","PERIAPSIS":"546.093","EPHEMERIS_TYPE":"0","GP_ID":"188196943","ARG_OF_PERICENTER":"73.2963","OBJECT_ID":"2020-006X","NORAD_CAT_ID":"45065","TLE_LINE2":"2 45065  53.0551 228.5080 0001614  73.2963 286.8203 15.06400913 96281","OBJECT_NAME":"STARLINK-1139","MEAN_ELEMENT_THEORY":"SGP4","SITE":"AFETR","ECCENTRICITY":"0.00016140","CLASSIFICATION_TYPE":"U","EPOCH":"2021-10-26T07:45:52.534080","MEAN_ANOMALY":"286.8203","RA_OF_ASC_NODE":"228.5080","COUNTRY_CODE":"US","DECAY_DATE":null,"OBJECT_TYPE":"PAYLOAD","CENTER_NAME":"EARTH","TLE_LINE1":"1 45065U 20006X   21299.32352470  .00000642  00000-0  62007-4 0  9998","BSTAR":"0.00006200700000","SEMIMAJOR_AXIS":"6925.346","FILE":"3184921","INCLINATION":"53.0551","MEAN_MOTION_DDOT":"0.0000000000000","REV_AT_EPOCH":"9628","APOAPSIS":"548.329","ELEMENT_SET_NO":"999"},{"MEAN_ANOMALY":"286.3598","RA_OF_ASC_NODE":"228.9172","OBJECT_NAME":"STARLINK-1145","EPOCH":"2021-10-26T05:33:10.933920","CLASSIFICATION_TYPE":"U","ECCENTRICITY":"0.00016520","MEAN_ELEMENT_THEORY":"SGP4","SITE":"AFETR","TLE_LINE2":"2 45066  53.0550 228.9172 0001652  73.7573 286.3598 15.06398443 96265","ELEMENT_SET_NO":"999","APOAPSIS":"548.362","MEAN_MOTION_DDOT":"0.0000000000000","FILE":"3184921","REV_AT_EPOCH":"9626","INCLINATION":"53.0550","TLE_LINE1":"1 45066U 20006Y   21299.23137655  .00000783  00000-0  71479-4 0  9994","SEMIMAJOR_AXIS":"6925.353","BSTAR":"0.00007147900000","DECAY_DATE":null,"COUNTRY_CODE":"US","CENTER_NAME":"EARTH","OBJECT_TYPE":"PAYLOAD","MEAN_MOTION_DOT":"0.00000783","MEAN_MOTION":"15.06398443","REF_FRAME":"TEME","PERIOD":"95.592","RCS_SIZE":"LARGE","TIME_SYSTEM":"UTC","LAUNCH_DATE":"2020-01-29","NORAD_CAT_ID":"45066","ARG_OF_PERICENTER":"73.7573","OBJECT_ID":"2020-006Y","GP_ID":"188198194","EPHEMERIS_TYPE":"0","PERIAPSIS":"546.074"},{"RA_OF_ASC_NODE":"228.8411","MEAN_ANOMALY":"294.3352","SITE":"AFETR","MEAN_ELEMENT_THEORY":"SGP4","CLASSIFICATION_TYPE":"U","ECCENTRICITY":"0.00018300","EPOCH":"2021-10-26T05:54:24.544224","OBJECT_NAME":"STARLINK-1150","TLE_LINE2":"2 45067  53.0537 228.8411 0001830  65.7828 294.3352 15.06402483 96276","APOAPSIS":"548.473","ELEMENT_SET_NO":"999","FILE":"3184921","MEAN_MOTION_DDOT":"0.0000000000000","REV_AT_EPOCH":"9627","INCLINATION":"53.0537","BSTAR":"0.00003861400000","SEMIMAJOR_AXIS":"6925.341","TLE_LINE1":"1 45067U 20006Z   21299.24611741  .00000294  00000-0  38614-4 0  9990","OBJECT_TYPE":"PAYLOAD","CENTER_NAME":"EARTH","COUNTRY_CODE":"US","DECAY_DATE":null,"MEAN_MOTION":"15.06402483","MEAN_MOTION_DOT":"0.00000294","REF_FRAME":"TEME","PERIOD":"95.592","LAUNCH_DATE":"2020-01-29","TIME_SYSTEM":"UTC","RCS_SIZE":"LARGE","OBJECT_ID":"2020-006Z","ARG_OF_PERICENTER":"65.7828","NORAD_CAT_ID":"45067","GP_ID":"188197941","PERIAPSIS":"545.939","EPHEMERIS_TYPE":"0"},{"TIME_SYSTEM":"UTC","RCS_SIZE":"LARGE","LAUNCH_DATE":"2020-01-29","PERIOD":"95.592","REF_FRAME":"TEME","MEAN_MOTION_DOT":"-0.00000932","MEAN_MOTION":"15.06394423","EPHEMERIS_TYPE":"0","PERIAPSIS":"546.076","GP_ID":"188196693","ARG_OF_PERICENTER":"78.9041","OBJECT_ID":"2020-006AA","NORAD_CAT_ID":"45068","TLE_LINE2":"2 45068  53.0546 228.6070 0001667  78.9041 281.2135 15.06394423 96275","OBJECT_NAME":"STARLINK-1161","CLASSIFICATION_TYPE":"U","ECCENTRICITY":"0.00016670","EPOCH":"2021-10-26T07:14:02.630112","SITE":"AFETR","MEAN_ELEMENT_THEORY":"SGP4","MEAN_ANOMALY":"281.2135","RA_OF_ASC_NODE":"228.6070","DECAY_DATE":null,"COUNTRY_CODE":"US","CENTER_NAME":"EARTH","OBJECT_TYPE":"PAYLOAD","TLE_LINE1":"1 45068U 20006AA  21299.30141933 -.00000932  00000-0 -43692-4 0  9992","SEMIMAJOR_AXIS":"6925.366","BSTAR":"-0.00004369200000","MEAN_MOTION_DDOT":"0.0000000000000","FILE":"3184921","INCLINATION":"53.0546","REV_AT_EPOCH":"9627","ELEMENT_SET_NO":"999","APOAPSIS":"548.385"},{"CENTER_NAME":"EARTH","OBJECT_TYPE":"PAYLOAD","COUNTRY_CODE":"US","DECAY_DATE":null,"SEMIMAJOR_AXIS":"6925.346","BSTAR":"0.00001977400000","TLE_LINE1":"1 45071U 20006AD  21299.27929560  .00000013  00000-0  19774-4 0  9994","MEAN_MOTION_DDOT":"0.0000000000000","FILE":"3184921","INCLINATION":"53.0547","REV_AT_EPOCH":"9627","ELEMENT_SET_NO":"999","APOAPSIS":"548.272","TLE_LINE2":"2 45071  53.0547 228.7001 0001532  76.6677 283.4483 15.06400860 96279","ECCENTRICITY":"0.00015320","CLASSIFICATION_TYPE":"U","EPOCH":"2021-10-26T06:42:11.139840","MEAN_ELEMENT_THEORY":"SGP4","SITE":"AFETR","OBJECT_NAME":"STARLINK-1167","RA_OF_ASC_NODE":"228.7001","MEAN_ANOMALY":"283.4483","EPHEMERIS_TYPE":"0","PERIAPSIS":"546.150","GP_ID":"188197443","ARG_OF_PERICENTER":"76.6677","OBJECT_ID":"2020-006AD","NORAD_CAT_ID":"45071","RCS_SIZE":"LARGE","TIME_SYSTEM":"UTC","LAUNCH_DATE":"2020-01-29","REF_FRAME":"TEME","PERIOD":"95.592","MEAN_MOTION":"15.06400860","MEAN_MOTION_DOT":"0.00000013"},{"DECAY_DATE":null,"COUNTRY_CODE":"US","CENTER_NAME":"EARTH","OBJECT_TYPE":"PAYLOAD","TLE_LINE1":"1 45072U 20006AE  21299.28297505  .00000883  00000-0  78187-4 0  9991","SEMIMAJOR_AXIS":"6925.359","BSTAR":"0.00007818700000","REV_AT_EPOCH":"9627","FILE":"3184921","MEAN_MOTION_DDOT":"0.0000000000000","INCLINATION":"53.0529","ELEMENT_SET_NO":"999","APOAPSIS":"548.376","TLE_LINE2":"2 45072  53.0529 228.6852 0001664  68.4045 291.7121 15.06396557 96275","OBJECT_NAME":"STARLINK-1168","CLASSIFICATION_TYPE":"U","EPOCH":"2021-10-26T06:47:29.044320","ECCENTRICITY":"0.00016640","MEAN_ELEMENT_THEORY":"SGP4","SITE":"AFETR","MEAN_ANOMALY":"291.7121","RA_OF_ASC_NODE":"228.6852","EPHEMERIS_TYPE":"0","PERIAPSIS":"546.072","GP_ID":"188197695","OBJECT_ID":"2020-006AE","NORAD_CAT_ID":"45072","ARG_OF_PERICENTER":"68.4045","RCS_SIZE":"LARGE","TIME_SYSTEM":"UTC","LAUNCH_DATE":"2020-01-29","PERIOD":"95.592","REF_FRAME":"TEME","MEAN_MOTION_DOT":"0.00000883","MEAN_MOTION":"15.06396557"},{"OBJECT_TYPE":"PAYLOAD","CENTER_NAME":"EARTH","COUNTRY_CODE":"US","DECAY_DATE":null,"SEMIMAJOR_AXIS":"6925.353","BSTAR":"0.00003423200000","TLE_LINE1":"1 45073U 20006AF  21299.17609327  .00000228  00000-0  34232-4 0  9995","FILE":"3184921","INCLINATION":"53.0540","MEAN_MOTION_DDOT":"0.0000000000000","REV_AT_EPOCH":"9625","APOAPSIS":"548.434","ELEMENT_SET_NO":"999","TLE_LINE2":"2 45073  53.0540 229.1556 0001755  75.7064 284.4119 15.06398435 96250","SITE":"AFETR","MEAN_ELEMENT_THEORY":"SGP4","CLASSIFICATION_TYPE":"U","EPOCH":"2021-10-26T04:13:34.458528","ECCENTRICITY":"0.00017550","OBJECT_NAME":"STARLINK-1170","RA_OF_ASC_NODE":"229.1556","MEAN_ANOMALY":"284.4119","PERIAPSIS":"546.003","EPHEMERIS_TYPE":"0","GP_ID":"188198441","OBJECT_ID":"2020-006AF","ARG_OF_PERICENTER":"75.7064","NORAD_CAT_ID":"45073","LAUNCH_DATE":"2020-01-29","TIME_SYSTEM":"UTC","RCS_SIZE":"LARGE","PERIOD":"95.592","REF_FRAME":"TEME","MEAN_MOTION":"15.06398435","MEAN_MOTION_DOT":"0.00000228"}];
